{
  "type": "FeatureCollection",
  "features": [
    {
      "type": "Feature",
      "properties": {
        "norad_id": 42988,
        "name": "SKYSAT-C10",
        "group": "resource",
        "lat": -68.45250463148112,
        "lon": 133.4509203337282,
        "alt_km": 480.9415931202011,
        "timestamp": "2025-12-09T07:41:32.860462+00:00",
        "meta_object_name": "SKYSAT-C10",
        "meta_object_id": "2017-068B",
        "meta_epoch": "2025-12-08T21:01:23.008800",
        "meta_mean_motion": 15.3193243,
        "meta_eccentricity": 0.00053174,
        "meta_inclination": 97.4262,
        "meta_ra_of_asc_node": 113.7169,
        "meta_arg_of_pericenter": 114.4786,
        "meta_mean_anomaly": 245.701,
        "meta_ephemeris_type": 0,
        "meta_classification_type": "U",
        "meta_norad_cat_id": 42988,
        "meta_element_set_no": 999,
        "meta_rev_at_epoch": 45320,
        "meta_bstar": 0.00042536239,
        "meta_mean_motion_dot": 0.00013049,
        "meta_mean_motion_ddot": 0,
        "tle_line1": "1 42988U 17068B   25342.87596075  .00013049  00000+0  42536-3 0  9995",
        "tle_line2": "2 42988  97.4262 113.7169 0005317 114.4786 245.7010 15.31932430453202"
      },
      "geometry": {
        "type": "Point",
        "coordinates": [
          133.4509203337282,
          -68.45250463148112
        ]
      }
    },
    {
      "type": "Feature",
      "properties": {
        "norad_id": 42989,
        "name": "SKYSAT-C9",
        "group": "resource",
        "lat": 82.50598286688651,
        "lon": 31.40846368137057,
        "alt_km": 443.53678792049686,
        "timestamp": "2025-12-09T07:41:32.860472+00:00",
        "meta_object_name": "SKYSAT-C9",
        "meta_object_id": "2017-068C",
        "meta_epoch": "2025-12-08T21:55:31.130400",
        "meta_mean_motion": 15.35898767,
        "meta_eccentricity": 0.00106887,
        "meta_inclination": 97.4192,
        "meta_ra_of_asc_node": 113.1378,
        "meta_arg_of_pericenter": 99.9963,
        "meta_mean_anomaly": 260.2487,
        "meta_ephemeris_type": 0,
        "meta_classification_type": "U",
        "meta_norad_cat_id": 42989,
        "meta_element_set_no": 999,
        "meta_rev_at_epoch": 45349,
        "meta_bstar": 0.00048708407,
        "meta_mean_motion_dot": 0.00016985,
        "meta_mean_motion_ddot": 0,
        "tle_line1": "1 42989U 17068C   25342.91355475  .00016985  00000+0  48708-3 0  9997",
        "tle_line2": "2 42989  97.4192 113.1378 0010688  99.9963 260.2487 15.35898767453491"
      },
      "geometry": {
        "type": "Point",
        "coordinates": [
          31.40846368137057,
          82.50598286688651
        ]
      }
    },
    {
      "type": "Feature",
      "properties": {
        "norad_id": 42990,
        "name": "SKYSAT-C8",
        "group": "resource",
        "lat": 78.93420510359178,
        "lon": -24.84797128475564,
        "alt_km": 460.2586596518413,
        "timestamp": "2025-12-09T07:41:32.860483+00:00",
        "meta_object_name": "SKYSAT-C8",
        "meta_object_id": "2017-068D",
        "meta_epoch": "2025-12-08T21:51:54.057312",
        "meta_mean_motion": 15.32787709,
        "meta_eccentricity": 0.00018597,
        "meta_inclination": 97.4283,
        "meta_ra_of_asc_node": 112.8952,
        "meta_arg_of_pericenter": 4.2109,
        "meta_mean_anomaly": 355.9148,
        "meta_ephemeris_type": 0,
        "meta_classification_type": "U",
        "meta_norad_cat_id": 42990,
        "meta_element_set_no": 999,
        "meta_rev_at_epoch": 45312,
        "meta_bstar": 0.00044836968,
        "meta_mean_motion_dot": 0.0001413,
        "meta_mean_motion_ddot": 0,
        "tle_line1": "1 42990U 17068D   25342.91104233  .00014130  00000+0  44837-3 0  9992",
        "tle_line2": "2 42990  97.4283 112.8952 0001859   4.2109 355.9148 15.32787709453125"
      },
      "geometry": {
        "type": "Point",
        "coordinates": [
          -24.84797128475564,
          78.93420510359178
        ]
      }
    },
    {
      "type": "Feature",
      "properties": {
        "norad_id": 42991,
        "name": "SKYSAT-C7",
        "group": "resource",
        "lat": -38.888918120298975,
        "lon": 120.3916523968428,
        "alt_km": 477.3138061138643,
        "timestamp": "2025-12-09T07:41:32.860494+00:00",
        "meta_object_name": "SKYSAT-C7",
        "meta_object_id": "2017-068E",
        "meta_epoch": "2025-12-08T22:27:33.304032",
        "meta_mean_motion": 15.32194774,
        "meta_eccentricity": 0.00078023,
        "meta_inclination": 97.429,
        "meta_ra_of_asc_node": 113.9644,
        "meta_arg_of_pericenter": 68.9849,
        "meta_mean_anomaly": 291.2226,
        "meta_ephemeris_type": 0,
        "meta_classification_type": "U",
        "meta_norad_cat_id": 42991,
        "meta_element_set_no": 999,
        "meta_rev_at_epoch": 45319,
        "meta_bstar": 0.00042919898,
        "meta_mean_motion_dot": 0.00013283,
        "meta_mean_motion_ddot": 0,
        "tle_line1": "1 42991U 17068E   25342.93580213  .00013283  00000+0  42920-3 0  9990",
        "tle_line2": "2 42991  97.4290 113.9644 0007802  68.9849 291.2226 15.32194774453196"
      },
      "geometry": {
        "type": "Point",
        "coordinates": [
          120.3916523968428,
          -38.888918120298975
        ]
      }
    },
    {
      "type": "Feature",
      "properties": {
        "norad_id": 42992,
        "name": "SKYSAT-C6",
        "group": "resource",
        "lat": 82.31913521538155,
        "lon": 39.33419495225242,
        "alt_km": 460.6691768783039,
        "timestamp": "2025-12-09T07:41:32.860506+00:00",
        "meta_object_name": "SKYSAT-C6",
        "meta_object_id": "2017-068F",
        "meta_epoch": "2025-12-08T21:54:00.476928",
        "meta_mean_motion": 15.31363919,
        "meta_eccentricity": 0.00052333,
        "meta_inclination": 97.4324,
        "meta_ra_of_asc_node": 114.3826,
        "meta_arg_of_pericenter": 93.1487,
        "meta_mean_anomaly": 267.0353,
        "meta_ephemeris_type": 0,
        "meta_classification_type": "U",
        "meta_norad_cat_id": 42992,
        "meta_element_set_no": 999,
        "meta_rev_at_epoch": 45317,
        "meta_bstar": 0.00043809969,
        "meta_mean_motion_dot": 0.00013206,
        "meta_mean_motion_ddot": 0,
        "tle_line1": "1 42992U 17068F   25342.91250552  .00013206  00000+0  43810-3 0  9993",
        "tle_line2": "2 42992  97.4324 114.3826 0005233  93.1487 267.0353 15.31363919453174"
      },
      "geometry": {
        "type": "Point",
        "coordinates": [
          39.33419495225242,
          82.31913521538155
        ]
      }
    },
    {
      "type": "Feature",
      "properties": {
        "norad_id": 43111,
        "name": "CARTOSAT-2F",
        "group": "resource",
        "lat": -15.743449325074035,
        "lon": 43.12148315791731,
        "alt_km": 513.4949096884638,
        "timestamp": "2025-12-09T07:41:32.860517+00:00",
        "meta_object_name": "CARTOSAT-2F",
        "meta_object_id": "2018-004A",
        "meta_epoch": "2025-12-08T23:51:30.025728",
        "meta_mean_motion": 15.19212158,
        "meta_eccentricity": 6.625e-05,
        "meta_inclination": 97.4315,
        "meta_ra_of_asc_node": 40.6916,
        "meta_arg_of_pericenter": 136.8894,
        "meta_mean_anomaly": 223.2393,
        "meta_ephemeris_type": 0,
        "meta_classification_type": "U",
        "meta_norad_cat_id": 43111,
        "meta_element_set_no": 999,
        "meta_rev_at_epoch": 43845,
        "meta_bstar": 0.00024938565,
        "meta_mean_motion_dot": 5.183e-05,
        "meta_mean_motion_ddot": 0,
        "tle_line1": "1 43111U 18004A   25342.99409752  .00005183  00000+0  24939-3 0  9990",
        "tle_line2": "2 43111  97.4315  40.6916 0000662 136.8894 223.2393 15.19212158438453"
      },
      "geometry": {
        "type": "Point",
        "coordinates": [
          43.12148315791731,
          -15.743449325074035
        ]
      }
    },
    {
      "type": "Feature",
      "properties": {
        "norad_id": 43259,
        "name": "GAOFEN-1 02",
        "group": "resource",
        "lat": -79.70151233941569,
        "lon": 92.54353134040416,
        "alt_km": 647.1934140191715,
        "timestamp": "2025-12-09T07:41:32.860527+00:00",
        "meta_object_name": "GAOFEN-1 02",
        "meta_object_id": "2018-031A",
        "meta_epoch": "2025-12-08T22:18:42.325920",
        "meta_mean_motion": 14.76468104,
        "meta_eccentricity": 0.00014237,
        "meta_inclination": 98.0808,
        "meta_ra_of_asc_node": 40.7174,
        "meta_arg_of_pericenter": 227.5357,
        "meta_mean_anomaly": 132.5732,
        "meta_ephemeris_type": 0,
        "meta_classification_type": "U",
        "meta_norad_cat_id": 43259,
        "meta_element_set_no": 999,
        "meta_rev_at_epoch": 41462,
        "meta_bstar": 0.00023099387,
        "meta_mean_motion_dot": 1.556e-05,
        "meta_mean_motion_ddot": 0,
        "tle_line1": "1 43259U 18031A   25342.92965655  .00001556  00000+0  23099-3 0  9991",
        "tle_line2": "2 43259  98.0808  40.7174 0001423 227.5357 132.5732 14.76468104414623"
      },
      "geometry": {
        "type": "Point",
        "coordinates": [
          92.54353134040416,
          -79.70151233941569
        ]
      }
    }
  ]
}